[{"OBJECT_NAME":"KUIPER-00016","OBJECT_ID":"2025-088J","EPOCH":"2026-03-09T12:10:56.112096","MEAN_MOTION":14.79911342,"ECCENTRICITY":0.00063895,"INCLINATION":51.8993,"RA_OF_ASC_NODE":112.4008,"ARG_OF_PERICENTER":74.781,"MEAN_ANOMALY":285.3859,"EPHEMERIS_TYPE":0,"CLASSIFICATION_TYPE":"U","NORAD_CAT_ID":63732,"ELEMENT_SET_NO":999,"REV_AT_EPOCH":4730,"BSTAR":0.00067332806,"MEAN_MOTION_DOT":4.913e-5,"MEAN_MOTION_DDOT":0},{"OBJECT_NAME":"CZ-6A DEB","OBJECT_ID":"2022-151HR","EPOCH":"2026-03-09T16:52:36.250176","MEAN_MOTION":14.64023252,"ECCENTRICITY":0.0073958,"INCLINATION":98.6298,"RA_OF_ASC_NODE":123.1199,"ARG_OF_PERICENTER":253.9484,"MEAN_ANOMALY":105.3564,"EPHEMERIS_TYPE":0,"CLASSIFICATION_TYPE":"U","NORAD_CAT_ID":54489,"ELEMENT_SET_NO":999,"REV_AT_EPOCH":17491,"BSTAR":0.0020492656,"MEAN_MOTION_DOT":0.0001114,"MEAN_MOTION_DDOT":0}]
